STARLINK-35574          
1 66111U 25236AB  25308.58336806  .00150570  00000+0  10181-2 0  9990
2 66111  53.1574 329.4547 0001144  76.8713  71.7844 15.74097881  3686
STARLINK-35531          
1 66112U 25236AC  25308.58336806  .00152002  00000+0  10281-2 0  9994
2 66112  53.1576 329.4468 0000711  95.8191  56.6747 15.74086576  3741
STARLINK-35491          
1 66113U 25236AD  25308.58336806  .00106279  00000+0  72299-3 0  9998
2 66113  53.1575 329.4508 0000801  63.4209  87.1648 15.74119813  3747
STARLINK-35496          
1 66114U 25237A   25308.58336806 -.00322635  00000+0 -22645-2 0  9997
2 66114  53.1546 269.2131 0000455  69.9194  52.4465 15.74387912  3343
STARLINK-35428          
1 66115U 25237B   25308.58336806 -.00214549  00000+0 -14886-2 0  9990
2 66115  53.1544 269.2088 0000477 104.6965  19.6121 15.74338169  3344
STARLINK-35573          
1 66116U 25237C   25308.58336806 -.00186202  00000+0 -12884-2 0  9991
2 66116  53.1543 269.2049 0000786  81.8403  44.4019 15.74313283  3349
STARLINK-35572          
1 66117U 25237D   25308.58336806 -.00155685  00000+0 -10748-2 0  9990
2 66117  53.1541 269.1969 0001170  80.0227  50.0810 15.74265169  3342
STARLINK-35468          
1 66118U 25237E   25308.58336806 -.00186222  00000+0 -12884-2 0  9995
2 66118  53.1544 269.2008 0000582  86.7674  41.3896 15.74316228  3346
STARLINK-35547          
1 66119U 25237F   25308.58336806  .00243539  00000+0  16281-2 0  9994
2 66119  53.1542 269.1847 0000981  78.7601  57.1506 15.74066427  3345
STARLINK-35553          
1 66120U 25237G   25308.58336806 -.00186484  00000+0 -12925-2 0  9994
2 66120  53.1534 269.1929 0001283 102.4047  29.6230 15.74273413  3347
STARLINK-35631          
1 66121U 25237H   25308.58336806 -.00110672  00000+0 -75998-3 0  9991
2 66121  53.1534 269.1878 0000729 120.1847  13.7810 15.74229944  3348
STARLINK-35653          
1 66122U 25237J   25308.58336806  .00144129  00000+0  97621-3 0  9991
2 66122  53.1538 269.1803 0001370 119.2875  18.5293 15.74079913  3341
