CCSDS_OMM_VERS = 2.0
CREATION_DATE  = 
ORIGINATOR     = 

OBJECT_NAME    = STARLINK-35574
OBJECT_ID      = 2025-236AB
CENTER_NAME    = EARTH
REF_FRAME      = TEME
TIME_SYSTEM    = UTC
MEAN_ELEMENT_THEORY = SGP/SGP4

EPOCH          = 2025-11-04T14:00:03.000384
MEAN_MOTION    = 15.74097881
ECCENTRICITY   = .00011444
INCLINATION    = 53.1574
RA_OF_ASC_NODE = 329.4547
ARG_OF_PERICENTER = 76.8713
MEAN_ANOMALY   = 71.7844

EPHEMERIS_TYPE = 0
CLASSIFICATION_TYPE = U
NORAD_CAT_ID   = 66111
ELEMENT_SET_NO = 999
REV_AT_EPOCH   = 368
BSTAR          = .10180858E-2
MEAN_MOTION_DOT = .15057E-2
MEAN_MOTION_DDOT = 0

CCSDS_OMM_VERS = 2.0
CREATION_DATE  = 
ORIGINATOR     = 

OBJECT_NAME    = STARLINK-35531
OBJECT_ID      = 2025-236AC
CENTER_NAME    = EARTH
REF_FRAME      = TEME
TIME_SYSTEM    = UTC
MEAN_ELEMENT_THEORY = SGP/SGP4

EPOCH          = 2025-11-04T14:00:03.000384
MEAN_MOTION    = 15.74086576
ECCENTRICITY   = .00007112
INCLINATION    = 53.1576
RA_OF_ASC_NODE = 329.4468
ARG_OF_PERICENTER = 95.8191
MEAN_ANOMALY   = 56.6747

EPHEMERIS_TYPE = 0
CLASSIFICATION_TYPE = U
NORAD_CAT_ID   = 66112
ELEMENT_SET_NO = 999
REV_AT_EPOCH   = 374
BSTAR          = .10280507E-2
MEAN_MOTION_DOT = .152002E-2
MEAN_MOTION_DDOT = 0

CCSDS_OMM_VERS = 2.0
CREATION_DATE  = 
ORIGINATOR     = 

OBJECT_NAME    = STARLINK-35491
OBJECT_ID      = 2025-236AD
CENTER_NAME    = EARTH
REF_FRAME      = TEME
TIME_SYSTEM    = UTC
MEAN_ELEMENT_THEORY = SGP/SGP4

EPOCH          = 2025-11-04T14:00:03.000384
MEAN_MOTION    = 15.74119813
ECCENTRICITY   = .00008013
INCLINATION    = 53.1575
RA_OF_ASC_NODE = 329.4508
ARG_OF_PERICENTER = 63.4209
MEAN_ANOMALY   = 87.1648

EPHEMERIS_TYPE = 0
CLASSIFICATION_TYPE = U
NORAD_CAT_ID   = 66113
ELEMENT_SET_NO = 999
REV_AT_EPOCH   = 374
BSTAR          = .7229898E-3
MEAN_MOTION_DOT = .106279E-2
MEAN_MOTION_DDOT = 0

CCSDS_OMM_VERS = 2.0
CREATION_DATE  = 
ORIGINATOR     = 

OBJECT_NAME    = STARLINK-35496
OBJECT_ID      = 2025-237A
CENTER_NAME    = EARTH
REF_FRAME      = TEME
TIME_SYSTEM    = UTC
MEAN_ELEMENT_THEORY = SGP/SGP4

EPOCH          = 2025-11-04T14:00:03.000384
MEAN_MOTION    = 15.74387912
ECCENTRICITY   = .00004556
INCLINATION    = 53.1546
RA_OF_ASC_NODE = 269.2131
ARG_OF_PERICENTER = 69.9194
MEAN_ANOMALY   = 52.4465

EPHEMERIS_TYPE = 0
CLASSIFICATION_TYPE = U
NORAD_CAT_ID   = 66114
ELEMENT_SET_NO = 999
REV_AT_EPOCH   = 334
BSTAR          = -.2264475E-2
MEAN_MOTION_DOT = -.322635E-2
MEAN_MOTION_DDOT = 0

CCSDS_OMM_VERS = 2.0
CREATION_DATE  = 
ORIGINATOR     = 

OBJECT_NAME    = STARLINK-35428
OBJECT_ID      = 2025-237B
CENTER_NAME    = EARTH
REF_FRAME      = TEME
TIME_SYSTEM    = UTC
MEAN_ELEMENT_THEORY = SGP/SGP4

EPOCH          = 2025-11-04T14:00:03.000384
MEAN_MOTION    = 15.74338169
ECCENTRICITY   = .00004778
INCLINATION    = 53.1544
RA_OF_ASC_NODE = 269.2088
ARG_OF_PERICENTER = 104.6965
MEAN_ANOMALY   = 19.6121

EPHEMERIS_TYPE = 0
CLASSIFICATION_TYPE = U
NORAD_CAT_ID   = 66115
ELEMENT_SET_NO = 999
REV_AT_EPOCH   = 334
BSTAR          = -.14886054E-2
MEAN_MOTION_DOT = -.214549E-2
MEAN_MOTION_DDOT = 0

CCSDS_OMM_VERS = 2.0
CREATION_DATE  = 
ORIGINATOR     = 

OBJECT_NAME    = STARLINK-35573
OBJECT_ID      = 2025-237C
CENTER_NAME    = EARTH
REF_FRAME      = TEME
TIME_SYSTEM    = UTC
MEAN_ELEMENT_THEORY = SGP/SGP4

EPOCH          = 2025-11-04T14:00:03.000384
MEAN_MOTION    = 15.74313283
ECCENTRICITY   = .00007865
INCLINATION    = 53.1543
RA_OF_ASC_NODE = 269.2049
ARG_OF_PERICENTER = 81.8403
MEAN_ANOMALY   = 44.4019

EPHEMERIS_TYPE = 0
CLASSIFICATION_TYPE = U
NORAD_CAT_ID   = 66116
ELEMENT_SET_NO = 999
REV_AT_EPOCH   = 334
BSTAR          = -.12883892E-2
MEAN_MOTION_DOT = -.186202E-2
MEAN_MOTION_DDOT = 0

CCSDS_OMM_VERS = 2.0
CREATION_DATE  = 
ORIGINATOR     = 

OBJECT_NAME    = STARLINK-35572
OBJECT_ID      = 2025-237D
CENTER_NAME    = EARTH
REF_FRAME      = TEME
TIME_SYSTEM    = UTC
MEAN_ELEMENT_THEORY = SGP/SGP4

EPOCH          = 2025-11-04T14:00:03.000384
MEAN_MOTION    = 15.74265169
ECCENTRICITY   = .00011703
INCLINATION    = 53.1541
RA_OF_ASC_NODE = 269.1969
ARG_OF_PERICENTER = 80.0227
MEAN_ANOMALY   = 50.0810

EPHEMERIS_TYPE = 0
CLASSIFICATION_TYPE = U
NORAD_CAT_ID   = 66117
ELEMENT_SET_NO = 999
REV_AT_EPOCH   = 334
BSTAR          = -.10748451E-2
MEAN_MOTION_DOT = -.155685E-2
MEAN_MOTION_DDOT = 0

CCSDS_OMM_VERS = 2.0
CREATION_DATE  = 
ORIGINATOR     = 

OBJECT_NAME    = STARLINK-35468
OBJECT_ID      = 2025-237E
CENTER_NAME    = EARTH
REF_FRAME      = TEME
TIME_SYSTEM    = UTC
MEAN_ELEMENT_THEORY = SGP/SGP4

EPOCH          = 2025-11-04T14:00:03.000384
MEAN_MOTION    = 15.74316228
ECCENTRICITY   = .00005827
INCLINATION    = 53.1544
RA_OF_ASC_NODE = 269.2008
ARG_OF_PERICENTER = 86.7674
MEAN_ANOMALY   = 41.3896

EPHEMERIS_TYPE = 0
CLASSIFICATION_TYPE = U
NORAD_CAT_ID   = 66118
ELEMENT_SET_NO = 999
REV_AT_EPOCH   = 334
BSTAR          = -.12883968E-2
MEAN_MOTION_DOT = -.186222E-2
MEAN_MOTION_DDOT = 0

CCSDS_OMM_VERS = 2.0
CREATION_DATE  = 
ORIGINATOR     = 

OBJECT_NAME    = STARLINK-35547
OBJECT_ID      = 2025-237F
CENTER_NAME    = EARTH
REF_FRAME      = TEME
TIME_SYSTEM    = UTC
MEAN_ELEMENT_THEORY = SGP/SGP4

EPOCH          = 2025-11-04T14:00:03.000384
MEAN_MOTION    = 15.74066427
ECCENTRICITY   = .00009819
INCLINATION    = 53.1542
RA_OF_ASC_NODE = 269.1847
ARG_OF_PERICENTER = 78.7601
MEAN_ANOMALY   = 57.1506

EPHEMERIS_TYPE = 0
CLASSIFICATION_TYPE = U
NORAD_CAT_ID   = 66119
ELEMENT_SET_NO = 999
REV_AT_EPOCH   = 334
BSTAR          = .16280972E-2
MEAN_MOTION_DOT = .243539E-2
MEAN_MOTION_DDOT = 0

CCSDS_OMM_VERS = 2.0
CREATION_DATE  = 
ORIGINATOR     = 

OBJECT_NAME    = STARLINK-35553
OBJECT_ID      = 2025-237G
CENTER_NAME    = EARTH
REF_FRAME      = TEME
TIME_SYSTEM    = UTC
MEAN_ELEMENT_THEORY = SGP/SGP4

EPOCH          = 2025-11-04T14:00:03.000384
MEAN_MOTION    = 15.74273413
ECCENTRICITY   = .00012837
INCLINATION    = 53.1534
RA_OF_ASC_NODE = 269.1929
ARG_OF_PERICENTER = 102.4047
MEAN_ANOMALY   = 29.6230

EPHEMERIS_TYPE = 0
CLASSIFICATION_TYPE = U
NORAD_CAT_ID   = 66120
ELEMENT_SET_NO = 999
REV_AT_EPOCH   = 334
BSTAR          = -.12925333E-2
MEAN_MOTION_DOT = -.186484E-2
MEAN_MOTION_DDOT = 0

CCSDS_OMM_VERS = 2.0
CREATION_DATE  = 
ORIGINATOR     = 

OBJECT_NAME    = STARLINK-35631
OBJECT_ID      = 2025-237H
CENTER_NAME    = EARTH
REF_FRAME      = TEME
TIME_SYSTEM    = UTC
MEAN_ELEMENT_THEORY = SGP/SGP4

EPOCH          = 2025-11-04T14:00:03.000384
MEAN_MOTION    = 15.74229944
ECCENTRICITY   = .00007291
INCLINATION    = 53.1534
RA_OF_ASC_NODE = 269.1878
ARG_OF_PERICENTER = 120.1847
MEAN_ANOMALY   = 13.7810

EPHEMERIS_TYPE = 0
CLASSIFICATION_TYPE = U
NORAD_CAT_ID   = 66121
ELEMENT_SET_NO = 999
REV_AT_EPOCH   = 334
BSTAR          = -.75998102E-3
MEAN_MOTION_DOT = -.110672E-2
MEAN_MOTION_DDOT = 0

CCSDS_OMM_VERS = 2.0
CREATION_DATE  = 
ORIGINATOR     = 

OBJECT_NAME    = STARLINK-35653
OBJECT_ID      = 2025-237J
CENTER_NAME    = EARTH
REF_FRAME      = TEME
TIME_SYSTEM    = UTC
MEAN_ELEMENT_THEORY = SGP/SGP4

EPOCH          = 2025-11-04T14:00:03.000384
MEAN_MOTION    = 15.74079913
ECCENTRICITY   = .00013703
INCLINATION    = 53.1538
RA_OF_ASC_NODE = 269.1803
ARG_OF_PERICENTER = 119.2875
MEAN_ANOMALY   = 18.5293

EPHEMERIS_TYPE = 0
CLASSIFICATION_TYPE = U
NORAD_CAT_ID   = 66122
ELEMENT_SET_NO = 999
REV_AT_EPOCH   = 334
BSTAR          = .97621371E-3
MEAN_MOTION_DOT = .144129E-2
MEAN_MOTION_DDOT = 0

